[{"OBJECT_NAME":"SL-14 R/B","OBJECT_ID":"1986-006B","EPOCH":"2026-03-02T15:44:23.738784","MEAN_MOTION":14.86804047,"ECCENTRICITY":0.0075216,"INCLINATION":82.5235,"RA_OF_ASC_NODE":266.359,"ARG_OF_PERICENTER":296.5913,"MEAN_ANOMALY":62.761,"EPHEMERIS_TYPE":0,"CLASSIFICATION_TYPE":"U","NORAD_CAT_ID":16496,"ELEMENT_SET_NO":999,"REV_AT_EPOCH":14816,"BSTAR":7.5874e-5,"MEAN_MOTION_DOT":7.37e-6,"MEAN_MOTION_DDOT":0},{"OBJECT_NAME":"COSMOS 1743","OBJECT_ID":"1986-034A","EPOCH":"2026-03-02T12:20:10.109760","MEAN_MOTION":15.57962222,"ECCENTRICITY":0.00023854,"INCLINATION":82.5297,"RA_OF_ASC_NODE":81.3594,"ARG_OF_PERICENTER":341.7759,"MEAN_ANOMALY":18.3411,"EPHEMERIS_TYPE":0,"CLASSIFICATION_TYPE":"U","NORAD_CAT_ID":16719,"ELEMENT_SET_NO":999,"REV_AT_EPOCH":17913,"BSTAR":0.00051046286,"MEAN_MOTION_DOT":0.00038323,"MEAN_MOTION_DDOT":0},{"OBJECT_NAME":"SL-14 R/B","OBJECT_ID":"1986-046B","EPOCH":"2026-03-02T12:47:28.145760","MEAN_MOTION":14.85582066,"ECCENTRICITY":0.002162,"INCLINATION":82.4783,"RA_OF_ASC_NODE":86.9461,"ARG_OF_PERICENTER":250.4132,"MEAN_ANOMALY":109.475,"EPHEMERIS_TYPE":0,"CLASSIFICATION_TYPE":"U","NORAD_CAT_ID":16792,"ELEMENT_SET_NO":999,"REV_AT_EPOCH":12534,"BSTAR":6.2365e-5,"MEAN_MOTION_DOT":5.65e-6,"MEAN_MOTION_DDOT":0},{"OBJECT_NAME":"SL-14 R/B","OBJECT_ID":"1986-055B","EPOCH":"2026-03-02T16:22:43.425120","MEAN_MOTION":14.85635037,"ECCENTRICITY":0.0018796,"INCLINATION":82.5213,"RA_OF_ASC_NODE":133.2599,"ARG_OF_PERICENTER":0.1945,"MEAN_ANOMALY":162.3675,"EPHEMERIS_TYPE":0,"CLASSIFICATION_TYPE":"U","NORAD_CAT_ID":16882,"ELEMENT_SET_NO":999,"REV_AT_EPOCH":11832,"BSTAR":6.1425e-5,"MEAN_MOTION_DOT":5.57e-6,"MEAN_MOTION_DDOT":0},{"OBJECT_NAME":"AJISAI (EGS)","OBJECT_ID":"1986-061A","EPOCH":"2026-03-02T17:45:09.490752","MEAN_MOTION":12.44515513,"ECCENTRICITY":0.0011247,"INCLINATION":50.008,"RA_OF_ASC_NODE":114.7196,"ARG_OF_PERICENTER":269.1149,"MEAN_ANOMALY":209.095,"EPHEMERIS_TYPE":0,"CLASSIFICATION_TYPE":"U","NORAD_CAT_ID":16908,"ELEMENT_SET_NO":999,"REV_AT_EPOCH":46713,"BSTAR":0.000133,"MEAN_MOTION_DOT":-7.8e-7,"MEAN_MOTION_DDOT":0},{"OBJECT_NAME":"COSMOS 1812","OBJECT_ID":"1987-003A","EPOCH":"2026-03-02T00:19:21.107136","MEAN_MOTION":16.1891833,"ECCENTRICITY":0.0006784,"INCLINATION":82.4732,"RA_OF_ASC_NODE":204.4146,"ARG_OF_PERICENTER":288.0935,"MEAN_ANOMALY":71.9614,"EPHEMERIS_TYPE":0,"CLASSIFICATION_TYPE":"U","NORAD_CAT_ID":17295,"ELEMENT_SET_NO":999,"REV_AT_EPOCH":14324,"BSTAR":0.0008087416,"MEAN_MOTION_DOT":0.01403358,"MEAN_MOTION_DDOT":-1.203447e-6},{"OBJECT_NAME":"SL-14 R/B","OBJECT_ID":"1987-024B","EPOCH":"2026-03-02T13:39:19.778688","MEAN_MOTION":14.86124082,"ECCENTRICITY":0.0016694,"INCLINATION":82.5254,"RA_OF_ASC_NODE":99.4581,"ARG_OF_PERICENTER":285.6736,"MEAN_ANOMALY":74.2638,"EPHEMERIS_TYPE":0,"CLASSIFICATION_TYPE":"U","NORAD_CAT_ID":17567,"ELEMENT_SET_NO":999,"REV_AT_EPOCH":8707,"BSTAR":5.9098e-5,"MEAN_MOTION_DOT":5.43e-6,"MEAN_MOTION_DDOT":0},{"OBJECT_NAME":"COSMOS 1833","OBJECT_ID":"1987-027A","EPOCH":"2026-03-02T18:45:05.789664","MEAN_MOTION":14.13056234,"ECCENTRICITY":0.0024564,"INCLINATION":70.9233,"RA_OF_ASC_NODE":340.5371,"ARG_OF_PERICENTER":224.071,"MEAN_ANOMALY":135.8453,"EPHEMERIS_TYPE":0,"CLASSIFICATION_TYPE":"U","NORAD_CAT_ID":17589,"ELEMENT_SET_NO":999,"REV_AT_EPOCH":934,"BSTAR":-4.4856e-5,"MEAN_MOTION_DOT":-1.32e-6,"MEAN_MOTION_DDOT":0},{"OBJECT_NAME":"SL-16 R/B","OBJECT_ID":"1987-027B","EPOCH":"2026-03-02T18:36:00.422496","MEAN_MOTION":14.17166614,"ECCENTRICITY":0.0003751,"INCLINATION":71.0019,"RA_OF_ASC_NODE":291.067,"ARG_OF_PERICENTER":157.3546,"MEAN_ANOMALY":202.7743,"EPHEMERIS_TYPE":0,"CLASSIFICATION_TYPE":"U","NORAD_CAT_ID":17590,"ELEMENT_SET_NO":999,"REV_AT_EPOCH":1436,"BSTAR":-6.6724e-5,"MEAN_MOTION_DOT":-1.82e-6,"MEAN_MOTION_DDOT":0},{"OBJECT_NAME":"SL-14 R/B","OBJECT_ID":"1987-038B","EPOCH":"2026-03-02T18:17:49.872192","MEAN_MOTION":14.85362054,"ECCENTRICITY":0.0019075,"INCLINATION":82.5014,"RA_OF_ASC_NODE":303.3337,"ARG_OF_PERICENTER":183.0305,"MEAN_ANOMALY":177.0799,"EPHEMERIS_TYPE":0,"CLASSIFICATION_TYPE":"U","NORAD_CAT_ID":17912,"ELEMENT_SET_NO":999,"REV_AT_EPOCH":7820,"BSTAR":5.9139e-5,"MEAN_MOTION_DOT":5.34e-6,"MEAN_MOTION_DDOT":0},{"OBJECT_NAME":"COSMOS 1844","OBJECT_ID":"1987-041A","EPOCH":"2026-03-02T09:35:19.919040","MEAN_MOTION":14.14553253,"ECCENTRICITY":0.00296119,"INCLINATION":70.8992,"RA_OF_ASC_NODE":49.5518,"ARG_OF_PERICENTER":28.9163,"MEAN_ANOMALY":331.3591,"EPHEMERIS_TYPE":0,"CLASSIFICATION_TYPE":"U","NORAD_CAT_ID":17973,"ELEMENT_SET_NO":999,"REV_AT_EPOCH":255,"BSTAR":1.86442e-7,"MEAN_MOTION_DOT":-4.8e-7,"MEAN_MOTION_DDOT":0},{"OBJECT_NAME":"SL-14 R/B","OBJECT_ID":"1987-055B","EPOCH":"2026-03-02T19:23:22.586784","MEAN_MOTION":14.85619388,"ECCENTRICITY":0.0021711,"INCLINATION":82.5027,"RA_OF_ASC_NODE":355.5152,"ARG_OF_PERICENTER":39.7829,"MEAN_ANOMALY":320.4974,"EPHEMERIS_TYPE":0,"CLASSIFICATION_TYPE":"U","NORAD_CAT_ID":18153,"ELEMENT_SET_NO":999,"REV_AT_EPOCH":6891,"BSTAR":8.0186e-5,"MEAN_MOTION_DOT":7.21e-6,"MEAN_MOTION_DDOT":0},{"OBJECT_NAME":"COSMOS 1867","OBJECT_ID":"1987-060A","EPOCH":"2026-03-02T19:18:21.961440","MEAN_MOTION":14.31501715,"ECCENTRICITY":0.0014388,"INCLINATION":65.0119,"RA_OF_ASC_NODE":325.9869,"ARG_OF_PERICENTER":278.2114,"MEAN_ANOMALY":81.7338,"EPHEMERIS_TYPE":0,"CLASSIFICATION_TYPE":"U","NORAD_CAT_ID":18187,"ELEMENT_SET_NO":999,"REV_AT_EPOCH":1895,"BSTAR":3.606e-5,"MEAN_MOTION_DOT":-4.0e-8,"MEAN_MOTION_DDOT":0},{"OBJECT_NAME":"SL-14 R/B","OBJECT_ID":"1988-001B","EPOCH":"2026-03-02T19:15:54.354816","MEAN_MOTION":14.85517506,"ECCENTRICITY":0.0016589,"INCLINATION":82.5141,"RA_OF_ASC_NODE":201.8362,"ARG_OF_PERICENTER":260.3883,"MEAN_ANOMALY":99.5459,"EPHEMERIS_TYPE":0,"CLASSIFICATION_TYPE":"U","NORAD_CAT_ID":18749,"ELEMENT_SET_NO":999,"REV_AT_EPOCH":4100,"BSTAR":8.0829e-5,"MEAN_MOTION_DOT":7.23e-6,"MEAN_MOTION_DDOT":0},{"OBJECT_NAME":"COSMOS 1933","OBJECT_ID":"1988-020A","EPOCH":"2026-03-02T14:30:52.952256","MEAN_MOTION":15.17907098,"ECCENTRICITY":0.0003315,"INCLINATION":82.5096,"RA_OF_ASC_NODE":257.9238,"ARG_OF_PERICENTER":208.9472,"MEAN_ANOMALY":151.1579,"EPHEMERIS_TYPE":0,"CLASSIFICATION_TYPE":"U","NORAD_CAT_ID":18958,"ELEMENT_SET_NO":999,"REV_AT_EPOCH":4915,"BSTAR":0.00024571,"MEAN_MOTION_DOT":5.011e-5,"MEAN_MOTION_DDOT":0},{"OBJECT_NAME":"SL-3 R/B","OBJECT_ID":"1988-032B","EPOCH":"2026-03-02T18:05:26.290464","MEAN_MOTION":15.19808478,"ECCENTRICITY":0.0024088,"INCLINATION":97.5176,"RA_OF_ASC_NODE":45.0297,"ARG_OF_PERICENTER":257.5714,"MEAN_ANOMALY":102.2825,"EPHEMERIS_TYPE":0,"CLASSIFICATION_TYPE":"U","NORAD_CAT_ID":19046,"ELEMENT_SET_NO":999,"REV_AT_EPOCH":5105,"BSTAR":0.00033134,"MEAN_MOTION_DOT":7.082e-5,"MEAN_MOTION_DDOT":0},{"OBJECT_NAME":"SL-16 R/B","OBJECT_ID":"1988-039B","EPOCH":"2026-03-02T12:16:13.296000","MEAN_MOTION":14.19615352,"ECCENTRICITY":0.00223549,"INCLINATION":71.0128,"RA_OF_ASC_NODE":83.7279,"ARG_OF_PERICENTER":344.9642,"MEAN_ANOMALY":15.0816,"EPHEMERIS_TYPE":0,"CLASSIFICATION_TYPE":"U","NORAD_CAT_ID":19120,"ELEMENT_SET_NO":999,"REV_AT_EPOCH":95736,"BSTAR":9.097411e-5,"MEAN_MOTION_DOT":1.44e-6,"MEAN_MOTION_DDOT":0}]
