SL-14 R/B               
1 16496U 86006B   26061.65583031  .00000737  00000+0  75874-4 0  9993
2 16496  82.5235 266.3590 0075216 296.5913  62.7610 14.86804047148164
COSMOS 1743             
1 16719U 86034A   26061.51400590  .00038323  00000+0  51046-3 0  9991
2 16719  82.5297  81.3594 0002385 341.7759  18.3411 15.57962222179133
SL-14 R/B               
1 16792U 86046B   26061.53296465  .00000565  00000+0  62365-4 0  9995
2 16792  82.4783  86.9461 0021620 250.4132 109.4750 14.85582066125347
SL-14 R/B               
1 16882U 86055B   26061.68244705  .00000557  00000+0  61425-4 0  9998
2 16882  82.5213 133.2599 0018796   0.1945 162.3675 14.85635037118327
AJISAI (EGS)            
1 16908U 86061A   26061.73969318 -.00000078  00000+0  13300-3 0  9991
2 16908  50.0080 114.7196 0011247 269.1149 209.0950 12.44515513467132
COSMOS 1812             
1 17295U 87003A   26061.01343874  .01403358 -12034-5  80874-3 0  9997
2 17295  82.4732 204.4146 0006784 288.0935  71.9614 16.18918330143245
SL-14 R/B               
1 17567U 87024B   26061.56897892  .00000543  00000+0  59098-4 0  9992
2 17567  82.5254  99.4581 0016694 285.6736  74.2638 14.86124082 87071
COSMOS 1833             
1 17589U 87027A   26061.78131701 -.00000132  00000+0 -44856-4 0  9995
2 17589  70.9233 340.5371 0024564 224.0710 135.8453 14.13056234  9340
SL-16 R/B               
1 17590U 87027B   26061.77500489 -.00000182  00000+0 -66724-4 0  9992
2 17590  71.0019 291.0670 0003751 157.3546 202.7743 14.17166614 14360
SL-14 R/B               
1 17912U 87038B   26061.76238278  .00000534  00000+0  59139-4 0  9996
2 17912  82.5014 303.3337 0019075 183.0305 177.0799 14.85362054 78201
COSMOS 1844             
1 17973U 87041A   26061.39953610 -.00000048  00000+0  18644-6 0  9999
2 17973  70.8992  49.5518 0029611  28.9163 331.3591 14.14553253  2554
SL-14 R/B               
1 18153U 87055B   26061.80790031  .00000721  00000+0  80186-4 0  9992
2 18153  82.5027 355.5152 0021711  39.7829 320.4974 14.85619388 68916
COSMOS 1867             
1 18187U 87060A   26061.80442085 -.00000004  00000+0  36060-4 0  9995
2 18187  65.0119 325.9869 0014388 278.2114  81.7338 14.31501715 18951
SL-14 R/B               
1 18749U 88001B   26061.80271244  .00000723  00000+0  80829-4 0  9991
2 18749  82.5141 201.8362 0016589 260.3883  99.5459 14.85517506 41001
COSMOS 1933             
1 18958U 88020A   26061.60477954  .00005011  00000+0  24571-3 0  9994
2 18958  82.5096 257.9238 0003315 208.9472 151.1579 15.17907098 49158
SL-3 R/B                
1 19046U 88032B   26061.75377651  .00007082  00000+0  33134-3 0  9990
2 19046  97.5176  45.0297 0024088 257.5714 102.2825 15.19808478 51059
SL-16 R/B               
1 19120U 88039B   26061.51126500  .00000144  00000+0  90974-4 0  9997
2 19120  71.0128  83.7279 0022354 344.9642  15.0816 14.19615352957366
